PAKSAT-1R               
1 37779U 11042A   26177.17414615  .00000164  00000+0  00000+0 0  9992
2 37779   0.7124  84.5374 0003512 346.9074 303.4888  1.00271669 54560
SES-2                   
1 37809U 11049A   26177.15461479 -.00000185  00000+0  00000+0 0  9995
2 37809   0.0833  95.0147 0003081 357.2147 150.7118  1.00272396 54057
ARABSAT-5C              
1 37810U 11049B   26177.17059279  .00000134  00000+0  00000+0 0  9993
2 37810   0.0475   5.4957 0003323 106.7798 243.4451  1.00269272 54120
EUTELSAT 7 WEST A       
1 37816U 11051A   26176.38091697 -.00000050  00000+0  00000+0 0  9992
2 37816   0.0598 351.6871 0004679 115.4767 296.1841  1.00273395 53950
QUETZSAT 1              
1 37826U 11054A   26177.14906012 -.00000231  00000+0  00000+0 0  9998
2 37826   0.0160 325.0655 0002939 131.4367 154.4417  1.00272686 49965
INTELSAT 18 (IS-18)     
1 37834U 11056A   26177.13095453  .00000064  00000+0  00000+0 0  9999
2 37834   0.0160 297.9044 0002067 160.8181  42.6714  1.00272913 53905
EUTELSAT 16A            
1 37836U 11057A   26177.16972611  .00000115  00000+0  00000+0 0  9992
2 37836   0.0400   6.5551 0005598  88.7860 256.0455  1.00271966  7421
VIASAT-1                
1 37843U 11059A   26176.28831847 -.00000014  00000+0  00000+0 0  9998
2 37843   0.0009 357.0742 0002566  98.7578 166.2791  1.00270719 47401
ASIASAT 7               
1 37933U 11069A   26176.75974816 -.00000323  00000+0  00000+0 0  9998
2 37933   0.0377 277.1940 0001535 161.6516 214.0248  1.00268305 44941
BEIDOU-2 IGSO-5         
1 37948U 11073A   26175.65702808 -.00000196  00000+0  00000+0 0  9995
2 37948  47.6633 271.4526 0114223 222.0346 107.5350  1.00272136 53204
LUCH-5A                 
1 37951U 11074B   26176.63453922 -.00000048  00000+0  00000+0 0  9995
2 37951   8.7753  73.6852 0002663  30.0986 205.3458  1.00272190 53132
NIGCOMSAT 1R            
1 38014U 11077A   26177.17501281  .00000156  00000+0  00000+0 0  9990
2 38014   0.0454 235.7988 0002604 121.9197  22.0985  1.00275903 53040
WGS F4 (USA 233)        
1 38070U 12003A   26176.34142082  .00000000  00000+0  00000+0 0  9998
2 38070   0.0244  15.8760 0001724 100.8026   8.1381  1.00266012 44230
SES-4                   
1 38087U 12007A   26177.16227274 -.00000157  00000+0  00000+0 0  9992
2 38087   0.0227  39.2582 0002487  56.2313 215.2274  1.00272854 52312
BEIDOU-2 G5             
1 38091U 12008A   26177.17830617  .00000064  00000+0  00000+0 0  9996
2 38091   3.5966  69.6505 0008661 276.0937  51.4711  1.00275587 52458
MUOS-1                  
1 38093U 12009A   26177.16016714 -.00000122  00000+0  00000+0 0  9998
2 38093   5.4938  47.1450 0057788   2.3456 182.4677  1.00273040 52537
INTELSAT 22 (IS-22)     
1 38098U 12011A   26177.18090617  .00000000  00000+0  00000+0 0  9996
2 38098   0.0360  53.5740 0001763  73.2734 284.6951  1.00270696  7278
APSTAR-7                
1 38107U 12013A   26177.18177286  .00000000  00000+0  00000+0 0  9997
2 38107   0.0181  19.2687 0003254  85.2191 311.7678  1.00270153 51899
YAHSAT 1B               
1 38245U 12016A   26176.81959131  .00000137  00000+0  00000+0 0  9990
2 38245   0.0954  89.5433 0003546  31.6455 135.3998  1.00269651 45698
AEHF-2 (USA 235)        
1 38254U 12019A   26176.94943698 -.00000131  00000+0  00000+0 0  9993
2 38254   6.6702  57.4264 0002118  37.8058 144.0808  1.00273620  7076
JCSAT-13                
1 38331U 12023A   26177.04859184 -.00000345  00000+0  00000+0 0  9999
2 38331   0.0153  50.8830 0002805  50.9042 313.8850  1.00270483 51625
VINASAT-2               
1 38332U 12023B   26176.97886545 -.00000318  00000+0  00000+0 0  9992
2 38332   0.0137 343.5304 0002558 116.7480 298.0617  1.00270765 46743
NIMIQ 6                 
1 38342U 12026A   26177.18885088 -.00000163  00000+0  00000+0 0  9999
2 38342   0.0109  32.7967 0002972  58.1139 160.2856  1.00271726 50507
ZHONGXING-2A            
1 38352U 12028A   26176.97219211 -.00000283  00000+0  00000+0 0  9990
2 38352   1.4778  83.7858 0001681  10.5804 267.9298  1.00273068 51380
INTELSAT 19 (IS-19)     
1 38356U 12030A   26176.81086448 -.00000046  00000+0  00000+0 0  9991
2 38356   0.0176   9.4438 0003304  90.8659 271.5512  1.00271196 50539
ECHOSTAR 17             
1 38551U 12035A   26177.22934611 -.00000064  00000+0  00000+0 0  9993
2 38551   0.0041  89.6791 0002103   2.2702 157.8689  1.00271612 51154
METEOSAT-10 (MSG-3)     
1 38552U 12035B   26177.02380453  .00000000  00000+0  00000+0 0  9990
2 38552   4.6924  60.9829 0001742   8.1161 213.8156  1.00268444 50948
SES-5                   
1 38652U 12036A   26176.52586043  .00000044  00000+0  00000+0 0  9997
2 38652   0.0440 319.4688 0002254 132.5340  15.9396  1.00270102 44547
INTELSAT 20 (IS-20)     
1 38740U 12043A   26176.82377711 -.00000014  00000+0  00000+0 0  9994
2 38740   0.0023  27.0596 0002255 149.8040 102.1505  1.00273172 50831
HYLAS 2                 
1 38741U 12043B   26176.95253111 -.00000249  00000+0  00000+0 0  9996
2 38741   2.4499  80.9717 0002744  29.9885  73.4591  1.00272042 50869
INTELSAT 21 (IS-21)     
1 38749U 12045A   26177.22032502 -.00000274  00000+0  00000+0 0  9994
2 38749   0.0238  68.5437 0001792  38.3132 188.8088  1.00271980 50619
ASTRA 2F                
1 38778U 12051A   26177.17223947  .00000161  00000+0  00000+0 0  9996
2 38778   0.0847 258.1218 0002543 272.9159 193.4887  1.00276286 41221
