OBJECT_NAME,OBJECT_ID,EPOCH,MEAN_MOTION,ECCENTRICITY,INCLINATION,RA_OF_ASC_NODE,ARG_OF_PERICENTER,MEAN_ANOMALY,EPHEMERIS_TYPE,CLASSIFICATION_TYPE,NORAD_CAT_ID,ELEMENT_SET_NO,REV_AT_EPOCH,BSTAR,MEAN_MOTION_DOT,MEAN_MOTION_DDOT
PAKSAT-1R,2011-042A,2026-06-26T04:10:46.227360,1.00271669,.0003512,0.7124,84.5374,346.9074,303.4888,0,U,37779,999,5456,0,.164E-5,0
SES-2,2011-049A,2026-06-26T03:42:38.717856,1.00272396,.0003081,0.0833,95.0147,357.2147,150.7118,0,U,37809,999,5405,0,-.185E-5,0
ARABSAT-5C,2011-049B,2026-06-26T04:05:39.217056,1.00269272,.0003323,0.0475,5.4957,106.7798,243.4451,0,U,37810,999,5412,0,.134E-5,0
EUTELSAT 7 WEST A,2011-051A,2026-06-25T09:08:31.226208,1.00273395,.0004679,0.0598,351.6871,115.4767,296.1841,0,U,37816,999,5395,0,-.5E-6,0
QUETZSAT 1,2011-054A,2026-06-26T03:34:38.794368,1.00272686,.0002939,0.0160,325.0655,131.4367,154.4417,0,U,37826,999,4996,0,-.231E-5,0
INTELSAT 18 (IS-18),2011-056A,2026-06-26T03:08:34.471392,1.00272913,.0002067,0.0160,297.9044,160.8181,42.6714,0,U,37834,999,5390,0,.64E-6,0
EUTELSAT 16A,2011-057A,2026-06-26T04:04:24.335904,1.00271966,.0005598,0.0400,6.5551,88.7860,256.0455,0,U,37836,999,742,0,.115E-5,0
VIASAT-1,2011-059A,2026-06-25T06:55:10.715808,1.00270719,.0002566,0.0009,357.0742,98.7578,166.2791,0,U,37843,999,4740,0,-.14E-6,0
ASIASAT 7,2011-069A,2026-06-25T18:14:02.241024,1.00268305,.0001535,0.0377,277.1940,161.6516,214.0248,0,U,37933,999,4494,0,-.323E-5,0
BEIDOU-2 IGSO-5,2011-073A,2026-06-24T15:46:07.226112,1.00272136,.01142233,47.6633,271.4526,222.0346,107.5350,0,U,37948,999,5320,0,-.196E-5,0
LUCH-5A,2011-074B,2026-06-25T15:13:44.188608,1.00272190,.0002663,8.7753,73.6852,30.0986,205.3458,0,U,37951,999,5313,0,-.48E-6,0
NIGCOMSAT 1R,2011-077A,2026-06-26T04:12:01.106784,1.00275903,.0002604,0.0454,235.7988,121.9197,22.0985,0,U,38014,999,5304,0,.156E-5,0
WGS F4 (USA 233),2012-003A,2026-06-25T08:11:38.758848,1.00266012,.0001724,0.0244,15.8760,100.8026,8.1381,0,U,38070,999,4423,0,0,0
SES-4,2012-007A,2026-06-26T03:53:40.364736,1.00272854,.0002487,0.0227,39.2582,56.2313,215.2274,0,U,38087,999,5231,0,-.157E-5,0
BEIDOU-2 G5,2012-008A,2026-06-26T04:16:45.653088,1.00275587,.0008661,3.5966,69.6505,276.0937,51.4711,0,U,38091,999,5245,0,.64E-6,0
MUOS-1,2012-009A,2026-06-26T03:50:38.440896,1.00273040,.0057788,5.4938,47.1450,2.3456,182.4677,0,U,38093,999,5253,0,-.122E-5,0
INTELSAT 22 (IS-22),2012-011A,2026-06-26T04:20:30.293088,1.00270696,.0001763,0.0360,53.5740,73.2734,284.6951,0,U,38098,999,727,0,0,0
APSTAR-7,2012-013A,2026-06-26T04:21:45.175104,1.00270153,.0003254,0.0181,19.2687,85.2191,311.7678,0,U,38107,999,5189,0,0,0
YAHSAT 1B,2012-016A,2026-06-25T19:40:12.689184,1.00269651,.0003546,0.0954,89.5433,31.6455,135.3998,0,U,38245,999,4569,0,.137E-5,0
AEHF-2 (USA 235),2012-019A,2026-06-25T22:47:11.355072,1.00273620,.0002118,6.6702,57.4264,37.8058,144.0808,0,U,38254,999,707,0,-.131E-5,0
JCSAT-13,2012-023A,2026-06-26T01:09:58.334976,1.00270483,.0002805,0.0153,50.8830,50.9042,313.8850,0,U,38331,999,5162,0,-.345E-5,0
VINASAT-2,2012-023B,2026-06-25T23:29:33.974880,1.00270765,.0002558,0.0137,343.5304,116.7480,298.0617,0,U,38332,999,4674,0,-.318E-5,0
NIMIQ 6,2012-026A,2026-06-26T04:31:56.716032,1.00271726,.0002972,0.0109,32.7967,58.1139,160.2856,0,U,38342,999,5050,0,-.163E-5,0
ZHONGXING-2A,2012-028A,2026-06-25T23:19:57.398304,1.00273068,.0001681,1.4778,83.7858,10.5804,267.9298,0,U,38352,999,5138,0,-.283E-5,0
INTELSAT 19 (IS-19),2012-030A,2026-06-25T19:27:38.691072,1.00271196,.0003304,0.0176,9.4438,90.8659,271.5512,0,U,38356,999,5053,0,-.46E-6,0
ECHOSTAR 17,2012-035A,2026-06-26T05:30:15.503904,1.00271612,.0002103,0.0041,89.6791,2.2702,157.8689,0,U,38551,999,5115,0,-.64E-6,0
METEOSAT-10 (MSG-3),2012-035B,2026-06-26T00:34:16.711392,1.00268444,.0001742,4.6924,60.9829,8.1161,213.8156,0,U,38552,999,5094,0,0,0
SES-5,2012-036A,2026-06-25T12:37:14.341152,1.00270102,.0002254,0.0440,319.4688,132.5340,15.9396,0,U,38652,999,4454,0,.44E-6,0
INTELSAT 20 (IS-20),2012-043A,2026-06-25T19:46:14.342304,1.00273172,.0002255,0.0023,27.0596,149.8040,102.1505,0,U,38740,999,5083,0,-.14E-6,0
HYLAS 2,2012-043B,2026-06-25T22:51:38.687904,1.00272042,.0002744,2.4499,80.9717,29.9885,73.4591,0,U,38741,999,5086,0,-.249E-5,0
INTELSAT 21 (IS-21),2012-045A,2026-06-26T05:17:16.081728,1.00271980,.0001792,0.0238,68.5437,38.3132,188.8088,0,U,38749,999,5061,0,-.274E-5,0
ASTRA 2F,2012-051A,2026-06-26T04:08:01.490208,1.00276286,.0002543,0.0847,258.1218,272.9159,193.4887,0,U,38778,999,4122,0,.161E-5,0
